FLOCK 2E'-16            
1 41763U 98067KK  17345.87135473  .00044050  00000-0  37593-3 0  9992
2 41763  51.6359 211.2852 0006037 206.8283 153.2402 15.69037648 70685
